[
  {
    "OBJECT_NAME": "ARKTIKA-M 2",
    "OBJECT_ID": "2023-198A",
    "EPOCH": "2025-05-04T12:04:33.622752",
    "MEAN_MOTION": 2.00610586,
    "ECCENTRICITY": 0.6878285,
    "INCLINATION": 63.2278,
    "RA_OF_ASC_NODE": 199.1611,
    "ARG_OF_PERICENTER": 268.9844,
    "MEAN_ANOMALY": 18.3789,
    "EPHEMERIS_TYPE": 0,
    "CLASSIFICATION_TYPE": "U",
    "NORAD_CAT_ID": 58584,
    "ELEMENT_SET_NO": 999,
    "REV_AT_EPOCH": 1012,
    "BSTAR": 0,
    "MEAN_MOTION_DOT": 1.27e-06,
    "MEAN_MOTION_DDOT": 0
  },
  {
    "OBJECT_NAME": "TIANMU-1 11",
    "OBJECT_ID": "2023-205A",
    "EPOCH": "2025-05-06T04:17:52.141344",
    "MEAN_MOTION": 15.21726639,
    "ECCENTRICITY": 0.0009906,
    "INCLINATION": 97.3751,
    "RA_OF_ASC_NODE": 149.9279,
    "ARG_OF_PERICENTER": 9.9453,
    "MEAN_ANOMALY": 350.1977,
    "EPHEMERIS_TYPE": 0,
    "CLASSIFICATION_TYPE": "U",
    "NORAD_CAT_ID": 58645,
    "ELEMENT_SET_NO": 999,
    "REV_AT_EPOCH": 7552,
    "BSTAR": 0.00030771,
    "MEAN_MOTION_DOT": 6.911e-05,
    "MEAN_MOTION_DDOT": 0
  },
  {
    "OBJECT_NAME": "TIANMU-1 12",
    "OBJECT_ID": "2023-205B",
    "EPOCH": "2025-05-06T04:40:11.478720",
    "MEAN_MOTION": 15.21801215,
    "ECCENTRICITY": 0.0007745,
    "INCLINATION": 97.3738,
    "RA_OF_ASC_NODE": 149.8132,
    "ARG_OF_PERICENTER": 5.5758,
    "MEAN_ANOMALY": 354.5563,
    "EPHEMERIS_TYPE": 0,
    "CLASSIFICATION_TYPE": "U",
    "NORAD_CAT_ID": 58646,
    "ELEMENT_SET_NO": 999,
    "REV_AT_EPOCH": 7551,
    "BSTAR": 0.00033127,
    "MEAN_MOTION_DOT": 7.458e-05,
    "MEAN_MOTION_DDOT": 0
  },
  {
    "OBJECT_NAME": "TIANMU-1 13",
    "OBJECT_ID": "2023-205C",
    "EPOCH": "2025-05-06T05:25:49.955232",
    "MEAN_MOTION": 15.21623834,
    "ECCENTRICITY": 0.0006952,
    "INCLINATION": 97.3766,
    "RA_OF_ASC_NODE": 149.9658,
    "ARG_OF_PERICENTER": 337.5905,
    "MEAN_ANOMALY": 22.5027,
    "EPHEMERIS_TYPE": 0,
    "CLASSIFICATION_TYPE": "U",
    "NORAD_CAT_ID": 58647,
    "ELEMENT_SET_NO": 999,
    "REV_AT_EPOCH": 7551,
    "BSTAR": 0.0003277,
    "MEAN_MOTION_DOT": 7.337e-05,
    "MEAN_MOTION_DDOT": 0
  },
  {
    "OBJECT_NAME": "TIANMU-1 14",
    "OBJECT_ID": "2023-205D",
    "EPOCH": "2025-05-06T01:54:03.902976",
    "MEAN_MOTION": 15.21802277,
    "ECCENTRICITY": 0.000812,
    "INCLINATION": 97.3695,
    "RA_OF_ASC_NODE": 149.3726,
    "ARG_OF_PERICENTER": 347.1314,
    "MEAN_ANOMALY": 12.9714,
    "EPHEMERIS_TYPE": 0,
    "CLASSIFICATION_TYPE": "U",
    "NORAD_CAT_ID": 58648,
    "ELEMENT_SET_NO": 999,
    "REV_AT_EPOCH": 7549,
    "BSTAR": 0.00033708,
    "MEAN_MOTION_DOT": 7.591e-05,
    "MEAN_MOTION_DDOT": 0
  },
  {
    "OBJECT_NAME": "TIANMU-1 19",
    "OBJECT_ID": "2023-208A",
    "EPOCH": "2025-05-06T03:13:56.687232",
    "MEAN_MOTION": 15.23627785,
    "ECCENTRICITY": 0.0004551,
    "INCLINATION": 97.4234,
    "RA_OF_ASC_NODE": 238.6493,
    "ARG_OF_PERICENTER": 324.4815,
    "MEAN_ANOMALY": 35.6118,
    "EPHEMERIS_TYPE": 0,
    "CLASSIFICATION_TYPE": "U",
    "NORAD_CAT_ID": 58660,
    "ELEMENT_SET_NO": 999,
    "REV_AT_EPOCH": 7519,
    "BSTAR": 0.00040816,
    "MEAN_MOTION_DOT": 9.714e-05,
    "MEAN_MOTION_DDOT": 0
  },
  {
    "OBJECT_NAME": "TIANMU-1 20",
    "OBJECT_ID": "2023-208B",
    "EPOCH": "2025-05-06T05:29:47.550912",
    "MEAN_MOTION": 15.24834265,
    "ECCENTRICITY": 0.0007173,
    "INCLINATION": 97.417,
    "RA_OF_ASC_NODE": 238.9751,
    "ARG_OF_PERICENTER": 333.1618,
    "MEAN_ANOMALY": 26.9248,
    "EPHEMERIS_TYPE": 0,
    "CLASSIFICATION_TYPE": "U",
    "NORAD_CAT_ID": 58661,
    "ELEMENT_SET_NO": 999,
    "REV_AT_EPOCH": 7525,
    "BSTAR": 0.00037906,
    "MEAN_MOTION_DOT": 9.35e-05,
    "MEAN_MOTION_DDOT": 0
  },
  {
    "OBJECT_NAME": "TIANMU-1 21",
    "OBJECT_ID": "2023-208C",
    "EPOCH": "2025-05-06T04:56:51.592416",
    "MEAN_MOTION": 15.26685139,
    "ECCENTRICITY": 0.0006711,
    "INCLINATION": 97.4212,
    "RA_OF_ASC_NODE": 240.0189,
    "ARG_OF_PERICENTER": 330.8255,
    "MEAN_ANOMALY": 29.2608,
    "EPHEMERIS_TYPE": 0,
    "CLASSIFICATION_TYPE": "U",
    "NORAD_CAT_ID": 58662,
    "ELEMENT_SET_NO": 999,
    "REV_AT_EPOCH": 7530,
    "BSTAR": 0.00042102,
    "MEAN_MOTION_DOT": 0.0001099,
    "MEAN_MOTION_DDOT": 0
  },
  {
    "OBJECT_NAME": "TIANMU-1 22",
    "OBJECT_ID": "2023-208D",
    "EPOCH": "2025-05-06T04:29:19.892256",
    "MEAN_MOTION": 15.23645009,
    "ECCENTRICITY": 0.0003652,
    "INCLINATION": 97.4229,
    "RA_OF_ASC_NODE": 238.8066,
    "ARG_OF_PERICENTER": 358.8718,
    "MEAN_ANOMALY": 1.251,
    "EPHEMERIS_TYPE": 0,
    "CLASSIFICATION_TYPE": "U",
    "NORAD_CAT_ID": 58663,
    "ELEMENT_SET_NO": 999,
    "REV_AT_EPOCH": 7521,
    "BSTAR": 0.00039769,
    "MEAN_MOTION_DOT": 9.466e-05,
    "MEAN_MOTION_DDOT": 0
  },
  {
    "OBJECT_NAME": "TIANMU-1 15",
    "OBJECT_ID": "2024-004A",
    "EPOCH": "2025-05-05T21:02:15.457056",
    "MEAN_MOTION": 15.21800342,
    "ECCENTRICITY": 0.0006949,
    "INCLINATION": 97.4661,
    "RA_OF_ASC_NODE": 308.6941,
    "ARG_OF_PERICENTER": 8.055,
    "MEAN_ANOMALY": 352.0796,
    "EPHEMERIS_TYPE": 0,
    "CLASSIFICATION_TYPE": "U",
    "NORAD_CAT_ID": 58700,
    "ELEMENT_SET_NO": 999,
    "REV_AT_EPOCH": 7373,
    "BSTAR": 0.0003248,
    "MEAN_MOTION_DOT": 7.308e-05,
    "MEAN_MOTION_DDOT": 0
  },
  {
    "OBJECT_NAME": "TIANMU-1 16",
    "OBJECT_ID": "2024-004B",
    "EPOCH": "2025-05-06T04:34:29.822016",
    "MEAN_MOTION": 15.21723189,
    "ECCENTRICITY": 0.0007136,
    "INCLINATION": 97.4593,
    "RA_OF_ASC_NODE": 308.5805,
    "ARG_OF_PERICENTER": 7.7607,
    "MEAN_ANOMALY": 352.3738,
    "EPHEMERIS_TYPE": 0,
    "CLASSIFICATION_TYPE": "U",
    "NORAD_CAT_ID": 58701,
    "ELEMENT_SET_NO": 999,
    "REV_AT_EPOCH": 7378,
    "BSTAR": 0.0003477,
    "MEAN_MOTION_DOT": 7.812e-05,
    "MEAN_MOTION_DDOT": 0
  },
  {
    "OBJECT_NAME": "TIANMU-1 17",
    "OBJECT_ID": "2024-004C",
    "EPOCH": "2025-05-06T02:45:55.788192",
    "MEAN_MOTION": 15.21811185,
    "ECCENTRICITY": 0.0005582,
    "INCLINATION": 97.4632,
    "RA_OF_ASC_NODE": 308.797,
    "ARG_OF_PERICENTER": 11.0806,
    "MEAN_ANOMALY": 349.0552,
    "EPHEMERIS_TYPE": 0,
    "CLASSIFICATION_TYPE": "U",
    "NORAD_CAT_ID": 58702,
    "ELEMENT_SET_NO": 999,
    "REV_AT_EPOCH": 7376,
    "BSTAR": 0.00034343,
    "MEAN_MOTION_DOT": 7.733e-05,
    "MEAN_MOTION_DDOT": 0
  },
  {
    "OBJECT_NAME": "TIANMU-1 18",
    "OBJECT_ID": "2024-004D",
    "EPOCH": "2025-05-06T02:16:53.081184",
    "MEAN_MOTION": 15.21644832,
    "ECCENTRICITY": 0.0005062,
    "INCLINATION": 97.465,
    "RA_OF_ASC_NODE": 308.9286,
    "ARG_OF_PERICENTER": 355.8834,
    "MEAN_ANOMALY": 4.2359,
    "EPHEMERIS_TYPE": 0,
    "CLASSIFICATION_TYPE": "U",
    "NORAD_CAT_ID": 58703,
    "ELEMENT_SET_NO": 999,
    "REV_AT_EPOCH": 7376,
    "BSTAR": 0.00031453,
    "MEAN_MOTION_DOT": 7.041e-05,
    "MEAN_MOTION_DDOT": 0
  },
  {
    "OBJECT_NAME": "INSAT-3DS",
    "OBJECT_ID": "2024-033A",
    "EPOCH": "2025-05-06T02:40:38.722656",
    "MEAN_MOTION": 1.00271661,
    "ECCENTRICITY": 0.000139,
    "INCLINATION": 0.04,
    "RA_OF_ASC_NODE": 88.9407,
    "ARG_OF_PERICENTER": 308.0079,
    "MEAN_ANOMALY": 309.5098,
    "EPHEMERIS_TYPE": 0,
    "CLASSIFICATION_TYPE": "U",
    "NORAD_CAT_ID": 58990,
    "ELEMENT_SET_NO": 999,
    "REV_AT_EPOCH": 473,
    "BSTAR": 0,
    "MEAN_MOTION_DOT": -1.62e-06,
    "MEAN_MOTION_DDOT": 0
  }
]