ARKTIKA-M 2             
1 58584U 23198A   25124.50316693  .00000127  00000+0  00000+0 0  9998
2 58584  63.2278 199.1611 6878285 268.9844  18.3789  2.00610586 10121
TIANMU-1 11             
1 58645U 23205A   25126.17907571  .00006911  00000+0  30771-3 0  9990
2 58645  97.3751 149.9279 0009906   9.9453 350.1977 15.21726639 75520
TIANMU-1 12             
1 58646U 23205B   25126.19457730  .00007458  00000+0  33127-3 0  9995
2 58646  97.3738 149.8132 0007745   5.5758 354.5563 15.21801215 75514
TIANMU-1 13             
1 58647U 23205C   25126.22627263  .00007337  00000+0  32770-3 0  9999
2 58647  97.3766 149.9658 0006952 337.5905  22.5027 15.21623834 75517
TIANMU-1 14             
1 58648U 23205D   25126.07921184  .00007591  00000+0  33708-3 0  9996
2 58648  97.3695 149.3726 0008120 347.1314  12.9714 15.21802277 75492
TIANMU-1 19             
1 58660U 23208A   25126.13468388  .00009714  00000+0  40816-3 0  9999
2 58660  97.4234 238.6493 0004551 324.4815  35.6118 15.23627785 75195
TIANMU-1 20             
1 58661U 23208B   25126.22902258  .00009350  00000+0  37906-3 0  9991
2 58661  97.4170 238.9751 0007173 333.1618  26.9248 15.24834265 75254
TIANMU-1 21             
1 58662U 23208C   25126.20615269  .00010990  00000+0  42102-3 0  9999
2 58662  97.4212 240.0189 0006711 330.8255  29.2608 15.26685139 75307
TIANMU-1 22             
1 58663U 23208D   25126.18703579  .00009466  00000+0  39769-3 0  9990
2 58663  97.4229 238.8066 0003652 358.8718   1.2510 15.23645009 75211
TIANMU-1 15             
1 58700U 24004A   25125.87656779  .00007308  00000+0  32480-3 0  9997
2 58700  97.4661 308.6941 0006949   8.0550 352.0796 15.21800342 73730
TIANMU-1 16             
1 58701U 24004B   25126.19062294  .00007812  00000+0  34770-3 0  9991
2 58701  97.4593 308.5805 0007136   7.7607 352.3738 15.21723189 73788
TIANMU-1 17             
1 58702U 24004C   25126.11522903  .00007733  00000+0  34343-3 0  9990
2 58702  97.4632 308.7970 0005582  11.0806 349.0552 15.21811185 73769
TIANMU-1 18             
1 58703U 24004D   25126.09505881  .00007041  00000+0  31453-3 0  9995
2 58703  97.4650 308.9286 0005062 355.8834   4.2359 15.21644832 73763
INSAT-3DS               
1 58990U 24033A   25126.11155929 -.00000162  00000+0  00000+0 0  9990
2 58990   0.0400  88.9407 0001390 308.0079 309.5098  1.00271661  4735
